SAR-LUPE 2              
1 31797U 07030A   26165.57047825  .00031662  00000+0  57371-3 0  9998
2 31797  98.1042 269.6791 0006259 143.8466 216.3207 15.49562387 56537
SAPPHIRE                
1 39088U 13009C   26165.65212157  .00000093  00000+0  47582-4 0  9991
2 39088  98.4259 345.1681 0010017 255.0576 104.9501 14.35239903696217
PRAETORIAN SDA_602      
1 65565U 25203A   26165.56665213  .00000052  00000+0  35597-4 0  9992
2 65565  81.3031  13.1964 0005631 191.3223 168.7808 13.84342471 38337
PRAETORIAN SDA_603      
1 65566U 25203B   26165.59251167  .00000111  00000+0  89759-4 0  9990
2 65566  81.3036  13.0878 0009241 194.9016 165.1870 13.83905396 38347
PRAETORIAN SDA_604      
1 65567U 25203C   26165.53827674  .00000058  00000+0  42601-4 0  9992
2 65567  81.3054  13.5457 0005124 199.1011 160.9954 13.83047213 38312
PRAETORIAN SDA_605      
1 65568U 25203D   26165.57667248  .00000046  00000+0  31054-4 0  9993
2 65568  81.3019  13.1758 0007942 190.2114 169.8882 13.83433958 38335
PRAETORIAN SDA_606      
1 65569U 25203E   26165.55916897  .00000067  00000+0  49679-4 0  9994
2 65569  81.3055  13.4126 0005580 188.1639 171.9427 13.83407140 38324
PRAETORIAN SDA_607      
1 65570U 25203F   26165.56886660  .00000163  00000+0  13532-3 0  9996
2 65570  81.3038  13.0707 0008497 194.9349 165.1558 13.84284346 38345
PRAETORIAN SDA_608      
1 65571U 25203G   26165.54538124  .00000053  00000+0  37416-4 0  9990
2 65571  81.3007  13.2534 0005636 198.2710 161.8245 13.83816519 38329
PRAETORIAN SDA_609      
1 65572U 25203H   26165.55104097  .00000187  00000+0  15721-3 0  9992
2 65572  81.3050  13.2315 0006546 192.6465 167.4529 13.84212027 38334
PRAETORIAN SDA_610      
1 65573U 25203J   26165.59750476  .00000047  00000+0  32001-4 0  9991
2 65573  81.3008  13.1632 0006302 195.6753 164.4210 13.83851652 38338
PRAETORIAN SDA_611      
1 65574U 25203K   26165.59727043  .00000718  00000+0  64359-3 0  9991
2 65574  81.3010  13.3277 0005189 202.1943 157.8989 13.83309655 38325
PRAETORIAN SDA_612      
1 65575U 25203L   26165.59011654  .00000216  00000+0  18077-3 0  9995
2 65575  81.3028  12.9265 0008962 194.0447 166.0462 13.85038786 38354
PRAETORIAN SDA_613      
1 65576U 25203M   26165.53064007  .00000049  00000+0  34109-4 0  9999
2 65576  81.3000  13.3836 0005414 191.2686 168.8350 13.82764788 38314
PRAETORIAN SDA_614      
1 65577U 25203N   26165.57880314  .00000028  00000+0  14629-4 0  9993
2 65577  81.3014  13.0140 0006850 191.0271 169.0737 13.84777827 38354
PRAETORIAN SDA_615      
1 65578U 25203P   26165.55504633  .00000274  00000+0  23444-3 0  9996
2 65578  81.3022  12.9983 0008728 192.6298 167.4642 13.84435794 38349
PRAETORIAN SDA_616      
1 65579U 25203Q   26165.59640665  .00000217  00000+0  18690-3 0  9991
2 65579  81.3063  13.4715 0005119 199.7604 160.3354 13.83267650 38327
PRAETORIAN SDA_617      
1 65580U 25203R   26165.54545173  .00000011  00000+0 -11499-5 0  9991
2 65580  81.3030  13.3497 0007136 191.7447 168.3544 13.83149782 38321
PRAETORIAN SDA_618      
1 65581U 25203S   26165.59379982  .00000110  00000+0  87250-4 0  9996
2 65581  81.3020  12.8932 0009472 195.1416 164.9459 13.84668975 38359
PRAETORIAN SDA_619      
1 65582U 25203T   26165.55582519  .00000215  00000+0  18353-3 0  9998
2 65582  81.3044  13.2210 0007910 193.0252 167.0702 13.83805231 38969
PRAETORIAN SDA_620      
1 65583U 25203U   26165.58345784  .00000277  00000+0  24034-3 0  9994
2 65583  81.3029  13.2160 0007382 187.9190 172.1851 13.83618098 38339
PRAETORIAN SDA_621      
1 65584U 25203V   26165.55758998  .00000050  00000+0  34132-4 0  9997
2 65584  81.3021  13.1588 0007219 185.7962 174.3112 13.83800931 38330
PRAETORIAN SDA_601      
1 65585U 25203W   26165.59935498  .00000355  00000+0  31320-3 0  9997
2 65585  81.3038  13.4142 0005109 203.4496 156.6428 13.83167561 38321
